IRIDIUM 33 DEB          
1 35622U 97051QU  17345.73191122  .00001621  00000-0  47436-3 0  9993
2 35622  86.2238 145.5158 0025629  49.0199   7.4631 14.43224804449082
